     2.10           N: GPS NAV DATA                         RINEX VERSION / TYPE
teqc  2016Feb12     UNAVCO Archive Ops  20160225 03:54:20UTCPGM / RUN BY / DATE
    17                                                      LEAP SECONDS
Solaris x86 5.10|AMD64|cc SC5.8 -xarch=amd64|=+|=+          COMMENT
    1.3970D-08  0.0000D+00 -5.9605D-08  5.9605D-08          ION ALPHA
    1.1059D+05 -3.2768D+04 -2.6214D+05  1.9661D+05          ION BETA
   -9.313225746155D-10-5.329070518201D-15   405504     1885 DELTA-UTC: A0,A1,T,W
                                                            END OF HEADER
18 16  2 24 13 59 44.0 4.869019612670D-04 3.979039320257D-12 0.000000000000D+00
    1.900000000000D+01 6.125000000000D+00 5.005565644758D-09-2.862102091640D+00
    2.253800630569D-07 1.669280009810D-02 1.232884824276D-05 5.153673505783D+03
    3.095840000000D+05 2.849847078323D-07 4.805380754940D-01-1.005828380585D-07
    9.254030750268D-01 1.172812500000D+02-1.910077956928D+00-7.964974630307D-09
    2.442958901901D-10 1.000000000000D+00 1.885000000000D+03 0.000000000000D+00
    2.000000000000D+00 0.000000000000D+00-1.117587089539D-08 1.900000000000D+01
    3.026580000000D+05 4.000000000000D+00
28 16  2 24 14  0  0.0 5.046683363616D-04 2.614797267597D-12 0.000000000000D+00
    5.900000000000D+01 4.675000000000D+01 3.398712998610D-09 2.618212325795D+00
    2.402812242508D-06 1.989813614637D-02 1.158192753792D-05 5.153627443314D+03
    3.096000000000D+05 2.011656761169D-07-2.557018285527D+00-6.146728992462D-08
    9.897421975238D-01 1.663437500000D+02-1.621297089829D+00-7.122082377604D-09
    1.400058318049D-10 1.000000000000D+00 1.885000000000D+03 0.000000000000D+00
    2.000000000000D+00 0.000000000000D+00-1.071020960808D-08 5.900000000000D+01
    3.049980000000D+05 4.000000000000D+00
 8 16  2 24 14  0  0.0-2.510519698262D-05-1.477928890381D-12 0.000000000000D+00
    9.300000000000D+01 5.681250000000D+01 4.802342894001D-09 2.987878373836D+00
    2.911314368248D-06 1.823224825785D-03 3.561377525330D-06 5.153650100708D+03
    3.096000000000D+05 6.146728992462D-08-1.590545012813D+00-2.793967723846D-08
    9.619012426363D-01 3.098750000000D+02-1.344838776699D+00-8.425708107420D-09
    3.810873023872D-10 1.000000000000D+00 1.885000000000D+03 0.000000000000D+00
    2.000000000000D+00 0.000000000000D+00 4.656612873077D-09 9.300000000000D+01
    3.051480000000D+05 4.000000000000D+00
24 16  2 24 14  0  0.0-1.290673390031D-05-5.684341886081D-13 0.000000000000D+00
    9.800000000000D+01-6.187500000000D+01 4.916633368943D-09-3.360822414601D-02
   -3.304332494736D-06 4.298090119846D-03 6.606802344322D-06 5.153630855560D+03
    3.096000000000D+05 1.303851604462D-08 2.583337180946D+00 5.029141902924D-08
    9.504897735657D-01 2.434062500000D+02 3.758471592685D-01-8.376063182367D-09
   -5.821671067396D-10 1.000000000000D+00 1.885000000000D+03 0.000000000000D+00
    2.800000000000D+00 0.000000000000D+00 2.328306436539D-09 9.800000000000D+01
    3.069780000000D+05 4.000000000000D+00
10 16  2 24 14  0  0.0 3.894278779626D-05-5.798028723802D-12 0.000000000000D+00
    9.100000000000D+01 1.481250000000D+01 4.318037006431D-09-2.430800753591D+00
    7.040798664093D-07 1.177663565613D-03 1.292489469051D-05 5.153695196152D+03
    3.096000000000D+05 0.000000000000D+00 5.061881072122D-01-1.862645149231D-08
    9.599128151246D-01 1.312812500000D+02-2.876537503082D+00-7.849969839896D-09
    2.217949529358D-10 1.000000000000D+00 1.885000000000D+03 0.000000000000D+00
    2.000000000000D+00 0.000000000000D+00 2.328306436539D-09 9.100000000000D+01
    3.073380000000D+05 4.000000000000D+00
24 16  2 24 16  0  0.0-1.291092485189D-05-5.684341886081D-13 0.000000000000D+00
    9.900000000000D+01-5.984375000000D+01 4.978421656959D-09 1.016618678317D+00
   -2.939254045486D-06 4.298383253627D-03 6.511807441711D-06 5.153631282806D+03
    3.168000000000D+05 9.313225746155D-09 2.583276825335D+00 3.911554813385D-08
    9.504855764537D-01 2.461562500000D+02 3.758300636078D-01-8.381420548380D-09
   -5.810956335370D-10 1.000000000000D+00 1.885000000000D+03 0.000000000000D+00
    2.800000000000D+00 0.000000000000D+00 2.328306436539D-09 9.900000000000D+01
    3.096180000000D+05 4.000000000000D+00
13 16  2 24 16  0  0.0-1.874985173345D-04-2.842170943040D-12 0.000000000000D+00
    4.400000000000D+01 3.700000000000D+01 4.792699635177D-09 1.028081270523D+00
    1.825392246246D-06 4.650043440051D-03 4.457309842110D-06 5.153675832748D+03
    3.168000000000D+05-3.539025783539D-08 1.670068840225D+00-8.940696716309D-08
    9.716074305266D-01 2.986250000000D+02 1.981776328322D+00-8.278201963197D-09
    2.035799084918D-10 1.000000000000D+00 1.885000000000D+03 0.000000000000D+00
    2.000000000000D+00 0.000000000000D+00-1.117587089539D-08 4.400000000000D+01
    3.096180000000D+05 4.000000000000D+00
10 16  2 24 16  0  0.0 3.890087828040D-05-5.798028723802D-12 0.000000000000D+00
    9.200000000000D+01 1.184375000000D+01 4.366253300547D-09-1.382693631128D+00
    5.327165126801D-07 1.178538892418D-03 1.187250018120D-05 5.153690328598D+03
    3.168000000000D+05 1.303851604462D-08 5.061314835050D-01 3.725290298462D-09
    9.599144769995D-01 1.495000000000D+02-2.874476568961D+00-7.853541417238D-09
    2.385813664430D-10 1.000000000000D+00 1.885000000000D+03 0.000000000000D+00
    2.800000000000D+00 0.000000000000D+00 2.328306436539D-09 9.200000000000D+01
    3.096180000000D+05 4.000000000000D+00
27 16  2 24 16  0  0.0 6.590317934752D-05 3.637978807092D-12 0.000000000000D+00
    7.100000000000D+01 6.059375000000D+01 4.560904265684D-09 2.960459843858D+00
    3.263354301453D-06 3.251544083469D-03 3.650784492493D-06 5.153630313873D+03
    3.168000000000D+05 5.587935447693D-09-1.588647858223D+00-4.284083843231D-08
    9.699864119646D-01 3.150000000000D+02 2.041376163854D-01-8.303560162325D-09
    4.060883437809D-10 1.000000000000D+00 1.885000000000D+03 0.000000000000D+00
    2.000000000000D+00 0.000000000000D+00 1.396983861923D-09 7.100000000000D+01
    3.096180000000D+05 4.000000000000D+00
15 16  2 24 16  0  0.0-2.987417392433D-04-1.818989403546D-12 0.000000000000D+00
    1.050000000000D+02 5.303125000000D+01 5.668093241692D-09 2.025337046023D+00
    2.771615982056D-06 8.073273813352D-03 5.058944225311D-06 5.153800203323D+03
    3.168000000000D+05-2.440065145493D-07 1.500375877249D+00 7.078051567078D-08
    9.309508436680D-01 2.691562500000D+02 4.849465864404D-01-8.680361571902D-09
    2.975123925853D-10 1.000000000000D+00 1.885000000000D+03 0.000000000000D+00
    2.800000000000D+00 0.000000000000D+00-1.071020960808D-08 1.050000000000D+02
    3.096180000000D+05 4.000000000000D+00
18 16  2 24 16  0  0.0 4.869308322668D-04 3.979039320257D-12 0.000000000000D+00
    2.000000000000D+01 1.653125000000D+01 5.096998024712D-09-1.809676350158D+00
    9.033828973770D-07 1.669517171104D-02 1.134723424912D-05 5.153668333054D+03
    3.168000000000D+05 3.352761268616D-07 4.804806062201D-01 1.098960638046D-07
    9.254050133933D-01 1.367187500000D+02-1.909982830680D+00-8.023905656449D-09
    2.625109346341D-10 1.000000000000D+00 1.885000000000D+03 0.000000000000D+00
    2.000000000000D+00 0.000000000000D+00-1.117587089539D-08 2.000000000000D+01
    3.096180000000D+05 4.000000000000D+00
28 16  2 24 16  0  0.0 5.046874284744D-04 2.614797267597D-12 0.000000000000D+00
    6.100000000000D+01 5.343750000000D+01 3.362997225190D-09-2.614790575037D+00
    2.706423401833D-06 1.989599189255D-02 1.245178282261D-05 5.153631370544D+03
    3.168000000000D+05 2.160668373108D-07-2.557069821205D+00 5.587935447693D-09
    9.897433737100D-01 1.512187500000D+02-1.621280049759D+00-7.126368270414D-09
    1.871506527187D-10 1.000000000000D+00 1.885000000000D+03 0.000000000000D+00
    2.000000000000D+00 0.000000000000D+00-1.071020960808D-08 6.100000000000D+01
    3.096180000000D+05 4.000000000000D+00
30 16  2 24 16  0  0.0 1.000068150461D-04 4.206412995700D-12 0.000000000000D+00
    6.600000000000D+01-6.684375000000D+01 4.779127641278D-09 1.764881808811D-01
   -3.678724169731D-06 1.726426417008D-03 7.517635822296D-06 5.153633897781D+03
    3.168000000000D+05 3.911554813385D-08 2.674286963244D+00 1.490116119385D-08
    9.532396967510D-01 2.291875000000D+02 3.003804848438D+00-8.281059225070D-09
   -6.450268679581D-10 1.000000000000D+00 1.885000000000D+03 0.000000000000D+00
    2.000000000000D+00 0.000000000000D+00 3.259629011154D-09 6.600000000000D+01
    3.096180000000D+05 4.000000000000D+00
20 16  2 24 16  0  0.0 3.950381651521D-04 2.614797267597D-12 0.000000000000D+00
    7.600000000000D+01-8.375000000000D+00 5.110570018612D-09 2.160770332803D+00
   -4.842877388000D-07 4.851103760302D-03 1.166574656963D-05 5.153705945969D+03
    3.168000000000D+05 2.235174179077D-08 4.285510418196D-01-8.754432201386D-08
    9.266809310432D-01 1.365937500000D+02 1.335520858970D+00-8.155339702633D-09
    1.417916204758D-10 1.000000000000D+00 1.885000000000D+03 0.000000000000D+00
    2.000000000000D+00 0.000000000000D+00-8.381903171539D-09 7.600000000000D+01
    3.096180000000D+05 4.000000000000D+00
21 16  2 24 16  0  0.0-5.119889974594D-04-1.818989403546D-12 0.000000000000D+00
    2.700000000000D+01-7.621875000000D+01 5.352008646928D-09-9.394472100100D-01
   -3.533437848091D-06 2.319560153410D-02 6.265938282013D-06 5.153661485672D+03
    3.168000000000D+05-2.253800630569D-07-5.613533582092D-01 4.544854164124D-07
    9.358991874778D-01 2.487500000000D+02-1.824945456669D+00-8.847154233771D-09
   -2.675111429129D-10 1.000000000000D+00 1.885000000000D+03 0.000000000000D+00
    2.000000000000D+00 0.000000000000D+00-1.164153218269D-08 2.700000000000D+01
    3.096180000000D+05 4.000000000000D+00
